1 44922U 20001J   22365.21351243  .00002217  00000-0  16769-3 0  9997
2 44922  53.0533 174.1633 0001259  93.3625 266.7508 15.06402424164331
1 44922U 20001J   22365.47889741  .00002387  00000-0  17904-3 0  9994
2 44922  53.0532 172.9717 0001255  93.6491 266.4642 15.06405421164379
1 44922U 20001J   22365.74428139  .00002866  00000-0  21118-3 0  9998
2 44922  53.0532 171.7803 0001260  93.9854 266.1280 15.06409350164419
1 44922U 20001J   23001.47410445 -.00000489  00000-0 -13962-4 0  9997
2 44922  53.0521 168.5040 0001262  93.6668 266.4465 15.06397354164526
1 44922U 20001J   23001.47410445 -.00000489  00000-0 -13962-4 0  9997
2 44922  53.0521 168.5040 0001262  93.6668 266.4465 15.06397354164526
1 44922U 20001J   23001.73950162 -.00001071  00000-0 -53013-4 0  9990
2 44922  53.0534 167.3128 0001248  92.9596 267.1535 15.06388599164561
1 44922U 20001J   23001.73950162 -.00001071  00000-0 -53013-4 0  9990
2 44922  53.0534 167.3128 0001248  92.9596 267.1535 15.06388599164561
1 44922U 20001J   23002.46931415 -.00001017  00000-0 -49381-4 0  9994
2 44922  53.0533 164.0365 0001201  91.8868 268.2259 15.06395839164678
1 44922U 20001J   23002.46931415 -.00001017  00000-0 -49381-4 0  9994
2 44922  53.0533 164.0365 0001201  91.8868 268.2259 15.06395839164678
1 44922U 20001J   23002.86739390 -.00000959  00000-0 -45481-4 0  9997
2 44922  53.0536 162.2494 0001199  91.4195 268.6932 15.06397908164737
1 44922U 20001J   23003.46451345  .00002494  00000-0  18627-3 0  9990
2 44922  53.0539 159.5687 0001153  90.0267 270.0855 15.06392743164821
1 44922U 20001J   23003.79624454  .00003006  00000-0  22059-3 0  9993
2 44922  53.0539 158.0796 0001154  89.6695 270.4426 15.06398064164871
1 44922U 20001J   23004.45971713  .00001708  00000-0  13352-3 0  9993
2 44922  53.0538 155.1011 0001196  91.6847 268.4279 15.06397896164972
1 44922U 20001J   23004.65875369  .00001924  00000-0  14803-3 0  9997
2 44922  53.0539 154.2075 0001196  92.0807 268.0319 15.06403320165000
1 44922U 20001J   23005.12319228 -.00000022  00000-0  17401-4 0  9994
2 44922  53.0540 152.1227 0001250  93.3397 266.7735 15.06392286165079
1 44922U 20001J   23005.38859001 -.00001663  00000-0 -92784-4 0  9990
2 44922  53.0531 150.9307 0001644  93.5920 266.5257 15.06384324165111
1 44922U 20001J   23005.38859001 -.00001663  00000-0 -92784-4 0  9990
2 44922  53.0531 150.9307 0001644  93.5920 266.5257 15.06384324165111
1 44922U 20001J   23005.78667477 -.00002321  00000-0 -13706-3 0  9996
2 44922  53.0530 149.1438 0001313  98.2453 261.8685 15.06383068165174
1 44922U 20001J   23006.38379006  .00000911  00000-0  80038-4 0  9995
2 44922  53.0527 146.4628 0001283  99.8473 260.2661 15.06391231165264
1 44922U 20001J   23006.38379006  .00000911  00000-0  80038-4 0  9995
2 44922  53.0527 146.4628 0001283  99.8473 260.2661 15.06391231165264
1 44922U 20001J   23007.37899889  .00006629  00000-0  46356-3 0  9997
2 44922  53.0528 141.9954 0001245 101.7022 258.4107 15.06394509165410
1 44922U 20001J   23008.37419784  .00002015  00000-0  15414-3 0  9996
2 44922  53.0520 137.5281 0001195 101.9627 258.1496 15.06402369165561
1 44922U 20001J   23008.37419784  .00002015  00000-0  15414-3 0  9996
2 44922  53.0520 137.5281 0001195 101.9627 258.1496 15.06402369165561
1 44922U 20001J   23008.77227434  .00002785  00000-0  20573-3 0  9995
2 44922  53.0527 135.7420 0001225 103.2286 256.8840 15.06408179165623
1 44922U 20001J   23009.03766119  .00001245  00000-0  10245-3 0  9998
2 44922  53.0517 134.5493 0000859  94.4209 265.6878 15.06406047165662
1 44922U 20001J   23009.70113648 -.00001023  00000-0 -49770-4 0  9997
2 44922  53.0537 131.5713 0001306  98.0339 262.0799 15.06395324165767
1 44922U 20001J   23009.70113648 -.00001023  00000-0 -49770-4 0  9997
2 44922  53.0537 131.5713 0001306  98.0339 262.0799 15.06395324165767
1 44922U 20001J   23010.49729816  .00000594  00000-0  58765-4 0  9999
2 44922  53.0562 127.9988 0000873  88.8057 271.3032 15.06402275165880
1 44922U 20001J   23010.69633348  .00001053  00000-0  89523-4 0  9992
2 44922  53.0539 127.1037 0001046  88.0783 272.0325 15.06408003165914
1 44922U 20001J   23010.69633348  .00001053  00000-0  89523-4 0  9992
2 44922  53.0539 127.1037 0001046  88.0783 272.0325 15.06408003165914
1 44922U 20001J   23011.09441820  .00000193  00000-0  31846-4 0  9998
2 44922  53.0518 125.3151 0001227  92.2952 267.8177 15.06403852165974
1 44922U 20001J   23011.55884573  .00002284  00000-0  17217-3 0  9993
2 44922  53.0539 123.2322 0000972  85.6246 274.4854 15.06401413166048
1 44922U 20001J   23012.68673970  .00000813  00000-0  73487-4 0  9993
2 44922  53.0540 118.1680 0001307  98.5509 261.5628 15.06405295166215
1 44922U 20001J   23012.68673970  .00000813  00000-0  73487-4 0  9993
2 44922  53.0540 118.1680 0001307  98.5509 261.5628 15.06405295166215
1 44922U 20001J   23013.01848168  .00000799  00000-0  72534-4 0  9999
2 44922  53.0535 116.6798 0001581  81.3052 278.8116 15.06397157166264
1 44922U 20001J   23013.54925372  .00000872  00000-0  77436-4 0  9998
2 44922  53.0532 114.2949 0001284  93.1435 266.9701 15.06400337166341
1 44922U 20001J   23014.27907214  .00000651  00000-0  62588-4 0  9991
2 44922  53.0524 111.0183 0001324  93.6936 266.4204 15.06395073166458
1 44922U 20001J   23014.61079908  .00000293  00000-0  38561-4 0  9995
2 44922  53.0533 109.5344 0001270  69.2906 290.8219 15.06410661166509
1 44922U 20001J   23014.94254356 -.00000977  00000-0 -46715-4 0  9994
2 44922  53.0532 108.0418 0001594  75.4128 284.7038 15.06393714166553
1 44922U 20001J   23015.40697626  .00000233  00000-0  34539-4 0  9991
2 44922  53.0531 105.9560 0001689  77.3672 282.7505 15.06389754166620
1 44922U 20001J   23016.07043807  .00002975  00000-0  21854-3 0  9991
2 44922  53.0511 102.9801 0001632  74.7958 285.3211 15.06404110166727
1 44922U 20001J   23016.53485669  .00006209  00000-0  43517-3 0  9992
2 44922  53.0525 100.8947 0001243  83.3191 276.7939 15.06416753166797
1 44922U 20001J   23016.93294638 -.00000047  00000-0  15769-4 0  9994
2 44922  53.0530  99.1065 0001253  85.9486 274.1646 15.06395914166859
1 44922U 20001J   23017.39738504 -.00005598  00000-0 -35746-3 0  9993
2 44922  53.0532  97.0231 0001224  98.2173 261.8954 15.06374915166922
1 44922U 20001J   23017.39738504 -.00005598  00000-0 -35746-3 0  9993
2 44922  53.0532  97.0231 0001224  98.2173 261.8954 15.06374915166922
1 44922U 20001J   23018.32624335  .00035235  00000-0  23711-2 0  9990
2 44922  53.0525  92.8516 0001262  98.1297 261.9835 15.06422395167062
1 44922U 20001J   23018.45893449  .00038745  00000-0  26034-2 0  9998
2 44922  53.0527  92.2558 0001269  97.5373 262.5760 15.06433198167088
1 44922U 20001J   23018.92335565  .00023677  00000-0  16014-2 0  9995
2 44922  53.0527  90.1707 0000798  72.0318 288.0758 15.06439351167159
1 44922U 20001J   23019.18874368  .00015033  00000-0  10255-2 0  9991
2 44922  53.0531  88.9796 0001207  86.4814 273.6313 15.06415471167191
1 44922U 20001J   23019.45412767  .00026403  00000-0  17837-2 0  9998
2 44922  53.0530  87.7883 0001275  81.4886 278.6248 15.06422771167231
1 44922U 20001J   23019.98489907  .00021862  00000-0  14812-2 0  9990
2 44922  53.0534  85.4049 0001048 100.7349 259.3758 15.06419928167312
1 44922U 20001J   23020.44932976  .00029073  00000-0  19625-2 0  9991
2 44922  53.0535  83.3203 0001197  92.5953 267.5173 15.06403259167385
1 44922U 20001J   23020.44932976  .00029073  00000-0  19625-2 0  9991
2 44922  53.0535  83.3203 0001197  92.5953 267.5173 15.06403259167385
1 44922U 20001J   23020.98011466  .00015883  00000-0  10831-2 0  9996
2 44922  53.0537  80.9389 0001555 106.5498 253.5662 15.06389234167466
1 44922U 20001J   23022.43974387  .00017988  00000-0  12226-2 0  9996
2 44922  53.0528  74.3841 0001465  88.3991 271.7166 15.06424288167685
1 44922U 20001J   23022.97051834 -.00004078  00000-0 -25504-3 0  9990
2 44922  53.0520  72.0019 0001465  80.6037 279.5117 15.06395796167767
1 44922U 20001J   23024.49649852  .00009319  00000-0  64356-3 0  9991
2 44922  53.0523  65.1492 0001322  92.7504 267.3636 15.06405475167995
1 44922U 20001J   23024.96093007  .00005325  00000-0  37612-3 0  9996
2 44922  53.0526  63.0680 0001410  80.5429 279.5720 15.06399995168060
1 44922U 20001J   23025.35901204  .00008503  00000-0  58907-3 0  9998
2 44922  53.0527  61.2810 0001338  88.1115 272.0028 15.06397840168124
1 44922U 20001J   23025.82343079  .00022438  00000-0  15191-2 0  9990
2 44922  53.0529  59.1964 0001523  78.6595 281.4565 15.06432669168190
1 44922U 20001J   23025.82343079  .00022438  00000-0  15191-2 0  9990
2 44922  53.0529  59.1964 0001523  78.6595 281.4565 15.06432669168190
1 44922U 20001J   23026.08882026  .00004166  00000-0  29837-3 0  9990
2 44922  53.0527  58.0034 0001732  98.0928 262.0258 15.06401553168239
1 44922U 20001J   23026.35421028  .00020715  00000-0  14058-2 0  9997
2 44922  53.0532  56.8127 0001383  91.7013 268.4134 15.06390978168276
1 44922U 20001J   23027.08403135  .00011162  00000-0  76714-3 0  9991
2 44922  53.0536  53.5376 0001552  85.6201 274.4965 15.06395608168385
1 44922U 20001J   23027.28307177  .00006926  00000-0  48349-3 0  9997
2 44922  53.0532  52.6429 0001511  91.5171 268.5991 15.06394704168410
1 44922U 20001J   23027.94654137  .00004748  00000-0  33744-3 0  9994
2 44922  53.0528  49.6638 0001451  96.3866 263.7288 15.06397537168514
1 44922U 20001J   23028.27827571  .00003001  00000-0  22028-3 0  9999
2 44922  53.0532  48.1743 0001439 101.1760 258.9391 15.06396657168562
1 44922U 20001J   23029.20712977  .00002094  00000-0  15946-3 0  9998
2 44922  53.0531  44.0029 0001437 104.0603 256.0546 15.06400378168702
1 44922U 20001J   23029.33982319  .00001985  00000-0  15211-3 0  9994
2 44922  53.0531  43.4075 0001376  98.4370 261.6775 15.06400982168724
1 44922U 20001J   23030.26868005  .00001511  00000-0  12032-3 0  9996
2 44922  53.0539  39.2378 0001369  99.4727 260.6416 15.06400016168864
1 44922U 20001J   23030.33502626  .00001727  00000-0  13480-3 0  9995
2 44922  53.0539  38.9400 0001371  99.3069 260.8075 15.06401191168876
1 44922U 20001J   23030.86580174  .00000712  00000-0  66688-4 0  9999
2 44922  53.0539  36.5571 0001369 100.8133 259.3010 15.06398998168957
1 44922U 20001J   23031.33022819  .00001160  00000-0  96765-4 0  9996
2 44922  53.0545  34.4723 0001329  98.1137 262.0002 15.06402692169027
1 44922U 20001J   23031.33022819  .00001160  00000-0  96765-4 0  9996
2 44922  53.0545  34.4723 0001329  98.1137 262.0002 15.06402692169027
